[{"OBJECT_NAME":"STARLINK-32292","OBJECT_ID":"2024-204R","EPOCH":"2026-03-09T12:54:54.352512","MEAN_MOTION":15.30187281,"ECCENTRICITY":0.00010456,"INCLINATION":53.1601,"RA_OF_ASC_NODE":127.8321,"ARG_OF_PERICENTER":122.8246,"MEAN_ANOMALY":237.2855,"EPHEMERIS_TYPE":0,"CLASSIFICATION_TYPE":"U","NORAD_CAT_ID":61889,"ELEMENT_SET_NO":999,"REV_AT_EPOCH":7507,"BSTAR":-1.7371457e-5,"MEAN_MOTION_DOT":-8.73e-6,"MEAN_MOTION_DDOT":0},{"OBJECT_NAME":"THOR AGENA B DEB","OBJECT_ID":"1965-098G","EPOCH":"2026-03-09T23:22:06.853152","MEAN_MOTION":13.57256453,"ECCENTRICITY":0.07679635,"INCLINATION":79.6109,"RA_OF_ASC_NODE":51.0692,"ARG_OF_PERICENTER":143.4347,"MEAN_ANOMALY":222.1845,"EPHEMERIS_TYPE":0,"CLASSIFICATION_TYPE":"U","NORAD_CAT_ID":1951,"ELEMENT_SET_NO":999,"REV_AT_EPOCH":79416,"BSTAR":0.00077607754,"MEAN_MOTION_DOT":4.232e-5,"MEAN_MOTION_DDOT":0}]
